GLOBALSTAR M084         
1 38040U 11080A   24186.86466109 -.00000091  00000+0  73475-4 0  9996
2 38040  52.0023  25.8498 0000974  67.3524  62.8859 12.62263920578801
GLOBALSTAR M080         
1 38041U 11080B   24186.91954251 -.00000080  00000+0  13203-3 0  9993
2 38041  52.0075  27.1669 0000824  52.6892  87.4598 12.62262520579071
GLOBALSTAR M082         
1 38042U 11080C   24187.46009951 -.00000096  00000+0  41382-4 0  9990
2 38042  52.0092 340.9323 0001301 122.3171 254.9277 12.62270875579886
GLOBALSTAR M092         
1 38043U 11080D   24186.95760602 -.00000099  00000+0  25411-4 0  9999
2 38043  52.0092  72.8182 0000855  62.6338 310.6442 12.62263124578102
GLOBALSTAR M090         
1 38044U 11080E   24186.80273597 -.00000102  00000+0  11265-4 0  9993
2 38044  51.9905 337.1898 0000983 118.5261  29.8708 12.62264477579740
GLOBALSTAR M086         
1 38045U 11080F   24186.82981471 -.00000094  00000+0  55932-4 0  9992
2 38045  51.9915 337.6302 0000275 207.7055 304.6189 12.62263917579692
GLOBALSTAR M097         
1 39072U 13005A   24186.58577116 -.00000067  00000+0  20344-3 0  9990
2 39072  52.0036 252.5723 0000557 167.9472 192.1408 12.62264146526910
GLOBALSTAR M093         
1 39073U 13005B   24186.87575049 -.00000074  00000+0  16523-3 0  9998
2 39073  51.9796 245.5460 0000603 183.9790 176.1072 12.62275629526901
